COLIBRI-S (RS67S)       
1 61746U 24199M   25126.12111695  .00016956  00000+0  55465-3 0  9995
2 61746  97.3624 355.0003 0010820 311.8019  48.2298 15.31714796 74814
HORS 3 (RS81S)          
1 61753U 24199U   25126.20585192  .00019752  00000+0  62365-3 0  9993
2 61753  97.3593 355.1235 0009229 320.1133  39.9430 15.32834099 74833
HORS 4 (RS82S)          
1 61754U 24199V   25126.15974845  .00020061  00000+0  61959-3 0  9998
2 61754  97.3588 355.1782 0009179 320.9615  39.0965 15.33534216 74835
HORIZON (RS59S)         
1 61757U 24199Y   25126.08417392  .00027976  00000+0  79095-3 0  9994
2 61757  97.3614 355.4920 0009216 307.2176  52.8226 15.36255788 74848
SIT-2086                
1 61764U 24199AF  25126.20308710  .00023783  00000+0  70808-3 0  9994
2 61764  97.3594 355.4318 0007533 320.4756  39.5937 15.34677153 71698
MORDOVIA-IOT (RS50S)    
1 61765U 24199AG  25126.21845404  .00036840  00000+0  93382-3 0  9992
2 61765  97.3596 356.0601 0008267 301.0767  58.9667 15.39583980 71745
RUZAEVKA 390 (RS44S)    
1 61766U 24199AH  25126.20467271  .00033069  00000+0  87013-3 0  9998
2 61766  97.3596 355.9228 0008370 301.5846  58.4582 15.38459133 71738
HYPERVIEW 1G (RS66S)    
1 61772U 24199AP  25126.12143364  .00024242  00000+0  73394-3 0  9990
2 61772  97.3590 355.0772 0012364 321.7838  38.2528 15.34095578 71671
ALTAIR (RS65S)          
1 61779U 24199AW  25126.10816720  .00011361  00000+0  41251-3 0  9993
2 61779  97.3613 354.3688 0014449 325.3846  34.6452 15.28371075 74779
ASRTU-1 (AO-123)        
1 61781U 24199AY  25126.20214227  .00008625  00000+0  31850-3 0  9994
2 61781  97.3602 354.3853 0014775 325.2427  34.7846 15.27889350 71639
TUSUR GO (RS78S)        
1 61782U 24199AZ  25126.12199649  .00030052  00000+0  88368-3 0  9991
2 61782  97.3585 355.0760 0012740 321.3727  38.6604 15.34969188 71670
SAMSAT-IONOSPHERE (RS7*)
1 61784U 24199BB  25126.10518435  .00019875  00000+0  63700-3 0  9992
2 61784  97.3598 354.8073 0013634 322.9857  37.0443 15.32303493 74805
RTU MIREA 1 (RS51S)     
1 61785U 24199BC  25126.21706271  .00020794  00000+0  65835-3 0  9995
2 61785  97.3595 354.9608 0013332 321.9401  38.0898 15.32689035 71673
HADES-R                 
1 62690U 25009CK  25125.44169016  .00045708  00000+0  17349-2 0  9994
2 62690  97.4092 206.4498 0004157 192.2994 167.8144 15.26684721 16787
