[
  {
    "OBJECT_NAME": "COLIBRI-S (RS67S)",
    "OBJECT_ID": "2024-199M",
    "EPOCH": "2025-05-06T02:54:24.504480",
    "MEAN_MOTION": 15.31714796,
    "ECCENTRICITY": 0.001082,
    "INCLINATION": 97.3624,
    "RA_OF_ASC_NODE": 355.0003,
    "ARG_OF_PERICENTER": 311.8019,
    "MEAN_ANOMALY": 48.2298,
    "EPHEMERIS_TYPE": 0,
    "CLASSIFICATION_TYPE": "U",
    "NORAD_CAT_ID": 61746,
    "ELEMENT_SET_NO": 999,
    "REV_AT_EPOCH": 7481,
    "BSTAR": 0.00055465,
    "MEAN_MOTION_DOT": 0.00016956,
    "MEAN_MOTION_DDOT": 0
  },
  {
    "OBJECT_NAME": "HORS 3 (RS81S)",
    "OBJECT_ID": "2024-199U",
    "EPOCH": "2025-05-06T04:56:25.605888",
    "MEAN_MOTION": 15.32834099,
    "ECCENTRICITY": 0.0009229,
    "INCLINATION": 97.3593,
    "RA_OF_ASC_NODE": 355.1235,
    "ARG_OF_PERICENTER": 320.1133,
    "MEAN_ANOMALY": 39.943,
    "EPHEMERIS_TYPE": 0,
    "CLASSIFICATION_TYPE": "U",
    "NORAD_CAT_ID": 61753,
    "ELEMENT_SET_NO": 999,
    "REV_AT_EPOCH": 7483,
    "BSTAR": 0.00062365,
    "MEAN_MOTION_DOT": 0.00019752,
    "MEAN_MOTION_DDOT": 0
  },
  {
    "OBJECT_NAME": "HORS 4 (RS82S)",
    "OBJECT_ID": "2024-199V",
    "EPOCH": "2025-05-06T03:50:02.266080",
    "MEAN_MOTION": 15.33534216,
    "ECCENTRICITY": 0.0009179,
    "INCLINATION": 97.3588,
    "RA_OF_ASC_NODE": 355.1782,
    "ARG_OF_PERICENTER": 320.9615,
    "MEAN_ANOMALY": 39.0965,
    "EPHEMERIS_TYPE": 0,
    "CLASSIFICATION_TYPE": "U",
    "NORAD_CAT_ID": 61754,
    "ELEMENT_SET_NO": 999,
    "REV_AT_EPOCH": 7483,
    "BSTAR": 0.00061959,
    "MEAN_MOTION_DOT": 0.00020061,
    "MEAN_MOTION_DDOT": 0
  },
  {
    "OBJECT_NAME": "HORIZON (RS59S)",
    "OBJECT_ID": "2024-199Y",
    "EPOCH": "2025-05-06T02:01:12.626688",
    "MEAN_MOTION": 15.36255788,
    "ECCENTRICITY": 0.0009216,
    "INCLINATION": 97.3614,
    "RA_OF_ASC_NODE": 355.492,
    "ARG_OF_PERICENTER": 307.2176,
    "MEAN_ANOMALY": 52.8226,
    "EPHEMERIS_TYPE": 0,
    "CLASSIFICATION_TYPE": "U",
    "NORAD_CAT_ID": 61757,
    "ELEMENT_SET_NO": 999,
    "REV_AT_EPOCH": 7484,
    "BSTAR": 0.00079095,
    "MEAN_MOTION_DOT": 0.00027976,
    "MEAN_MOTION_DDOT": 0
  },
  {
    "OBJECT_NAME": "SIT-2086",
    "OBJECT_ID": "2024-199AF",
    "EPOCH": "2025-05-06T04:52:26.725440",
    "MEAN_MOTION": 15.34677153,
    "ECCENTRICITY": 0.0007533,
    "INCLINATION": 97.3594,
    "RA_OF_ASC_NODE": 355.4318,
    "ARG_OF_PERICENTER": 320.4756,
    "MEAN_ANOMALY": 39.5937,
    "EPHEMERIS_TYPE": 0,
    "CLASSIFICATION_TYPE": "U",
    "NORAD_CAT_ID": 61764,
    "ELEMENT_SET_NO": 999,
    "REV_AT_EPOCH": 7169,
    "BSTAR": 0.00070808,
    "MEAN_MOTION_DOT": 0.00023783,
    "MEAN_MOTION_DDOT": 0
  },
  {
    "OBJECT_NAME": "MORDOVIA-IOT (RS50S)",
    "OBJECT_ID": "2024-199AG",
    "EPOCH": "2025-05-06T05:14:34.429056",
    "MEAN_MOTION": 15.3958398,
    "ECCENTRICITY": 0.0008267,
    "INCLINATION": 97.3596,
    "RA_OF_ASC_NODE": 356.0601,
    "ARG_OF_PERICENTER": 301.0767,
    "MEAN_ANOMALY": 58.9667,
    "EPHEMERIS_TYPE": 0,
    "CLASSIFICATION_TYPE": "U",
    "NORAD_CAT_ID": 61765,
    "ELEMENT_SET_NO": 999,
    "REV_AT_EPOCH": 7174,
    "BSTAR": 0.00093382,
    "MEAN_MOTION_DOT": 0.0003684,
    "MEAN_MOTION_DDOT": 0
  },
  {
    "OBJECT_NAME": "RUZAEVKA 390 (RS44S)",
    "OBJECT_ID": "2024-199AH",
    "EPOCH": "2025-05-06T04:54:43.722144",
    "MEAN_MOTION": 15.38459133,
    "ECCENTRICITY": 0.000837,
    "INCLINATION": 97.3596,
    "RA_OF_ASC_NODE": 355.9228,
    "ARG_OF_PERICENTER": 301.5846,
    "MEAN_ANOMALY": 58.4582,
    "EPHEMERIS_TYPE": 0,
    "CLASSIFICATION_TYPE": "U",
    "NORAD_CAT_ID": 61766,
    "ELEMENT_SET_NO": 999,
    "REV_AT_EPOCH": 7173,
    "BSTAR": 0.00087013,
    "MEAN_MOTION_DOT": 0.00033069,
    "MEAN_MOTION_DDOT": 0
  },
  {
    "OBJECT_NAME": "HYPERVIEW 1G (RS66S)",
    "OBJECT_ID": "2024-199AP",
    "EPOCH": "2025-05-06T02:54:51.866496",
    "MEAN_MOTION": 15.34095578,
    "ECCENTRICITY": 0.0012364,
    "INCLINATION": 97.359,
    "RA_OF_ASC_NODE": 355.0772,
    "ARG_OF_PERICENTER": 321.7838,
    "MEAN_ANOMALY": 38.2528,
    "EPHEMERIS_TYPE": 0,
    "CLASSIFICATION_TYPE": "U",
    "NORAD_CAT_ID": 61772,
    "ELEMENT_SET_NO": 999,
    "REV_AT_EPOCH": 7167,
    "BSTAR": 0.00073394,
    "MEAN_MOTION_DOT": 0.00024242,
    "MEAN_MOTION_DDOT": 0
  },
  {
    "OBJECT_NAME": "ALTAIR (RS65S)",
    "OBJECT_ID": "2024-199AW",
    "EPOCH": "2025-05-06T02:35:45.646080",
    "MEAN_MOTION": 15.28371075,
    "ECCENTRICITY": 0.0014449,
    "INCLINATION": 97.3613,
    "RA_OF_ASC_NODE": 354.3688,
    "ARG_OF_PERICENTER": 325.3846,
    "MEAN_ANOMALY": 34.6452,
    "EPHEMERIS_TYPE": 0,
    "CLASSIFICATION_TYPE": "U",
    "NORAD_CAT_ID": 61779,
    "ELEMENT_SET_NO": 999,
    "REV_AT_EPOCH": 7477,
    "BSTAR": 0.00041251,
    "MEAN_MOTION_DOT": 0.00011361,
    "MEAN_MOTION_DDOT": 0
  },
  {
    "OBJECT_NAME": "ASRTU-1 (AO-123)",
    "OBJECT_ID": "2024-199AY",
    "EPOCH": "2025-05-06T04:51:05.092128",
    "MEAN_MOTION": 15.2788935,
    "ECCENTRICITY": 0.0014775,
    "INCLINATION": 97.3602,
    "RA_OF_ASC_NODE": 354.3853,
    "ARG_OF_PERICENTER": 325.2427,
    "MEAN_ANOMALY": 34.7846,
    "EPHEMERIS_TYPE": 0,
    "CLASSIFICATION_TYPE": "U",
    "NORAD_CAT_ID": 61781,
    "ELEMENT_SET_NO": 999,
    "REV_AT_EPOCH": 7163,
    "BSTAR": 0.0003185,
    "MEAN_MOTION_DOT": 8.625e-05,
    "MEAN_MOTION_DDOT": 0
  },
  {
    "OBJECT_NAME": "TUSUR GO (RS78S)",
    "OBJECT_ID": "2024-199AZ",
    "EPOCH": "2025-05-06T02:55:40.496736",
    "MEAN_MOTION": 15.34969188,
    "ECCENTRICITY": 0.001274,
    "INCLINATION": 97.3585,
    "RA_OF_ASC_NODE": 355.076,
    "ARG_OF_PERICENTER": 321.3727,
    "MEAN_ANOMALY": 38.6604,
    "EPHEMERIS_TYPE": 0,
    "CLASSIFICATION_TYPE": "U",
    "NORAD_CAT_ID": 61782,
    "ELEMENT_SET_NO": 999,
    "REV_AT_EPOCH": 7167,
    "BSTAR": 0.00088368,
    "MEAN_MOTION_DOT": 0.00030052,
    "MEAN_MOTION_DDOT": 0
  },
  {
    "OBJECT_NAME": "SAMSAT-IONOSPHERE (RS75S)",
    "OBJECT_ID": "2024-199BB",
    "EPOCH": "2025-05-06T02:31:27.927840",
    "MEAN_MOTION": 15.32303493,
    "ECCENTRICITY": 0.0013634,
    "INCLINATION": 97.3598,
    "RA_OF_ASC_NODE": 354.8073,
    "ARG_OF_PERICENTER": 322.9857,
    "MEAN_ANOMALY": 37.0443,
    "EPHEMERIS_TYPE": 0,
    "CLASSIFICATION_TYPE": "U",
    "NORAD_CAT_ID": 61784,
    "ELEMENT_SET_NO": 999,
    "REV_AT_EPOCH": 7480,
    "BSTAR": 0.000637,
    "MEAN_MOTION_DOT": 0.00019875,
    "MEAN_MOTION_DDOT": 0
  },
  {
    "OBJECT_NAME": "RTU MIREA 1 (RS51S)",
    "OBJECT_ID": "2024-199BC",
    "EPOCH": "2025-05-06T05:12:34.218144",
    "MEAN_MOTION": 15.32689035,
    "ECCENTRICITY": 0.0013332,
    "INCLINATION": 97.3595,
    "RA_OF_ASC_NODE": 354.9608,
    "ARG_OF_PERICENTER": 321.9401,
    "MEAN_ANOMALY": 38.0898,
    "EPHEMERIS_TYPE": 0,
    "CLASSIFICATION_TYPE": "U",
    "NORAD_CAT_ID": 61785,
    "ELEMENT_SET_NO": 999,
    "REV_AT_EPOCH": 7167,
    "BSTAR": 0.00065835,
    "MEAN_MOTION_DOT": 0.00020794,
    "MEAN_MOTION_DDOT": 0
  },
  {
    "OBJECT_NAME": "HADES-R",
    "OBJECT_ID": "2025-009CK",
    "EPOCH": "2025-05-05T10:36:02.029824",
    "MEAN_MOTION": 15.26684721,
    "ECCENTRICITY": 0.0004157,
    "INCLINATION": 97.4092,
    "RA_OF_ASC_NODE": 206.4498,
    "ARG_OF_PERICENTER": 192.2994,
    "MEAN_ANOMALY": 167.8144,
    "EPHEMERIS_TYPE": 0,
    "CLASSIFICATION_TYPE": "U",
    "NORAD_CAT_ID": 62690,
    "ELEMENT_SET_NO": 999,
    "REV_AT_EPOCH": 1678,
    "BSTAR": 0.0017349,
    "MEAN_MOTION_DOT": 0.00045708,
    "MEAN_MOTION_DDOT": 0
  }
]